NORAD_CAT_ID,OBJECT_NAME,OBJECT_TYPE,EPOCH,MEAN_MOTION,ECCENTRICITY,INCLINATION,RA_OF_ASC_NODE,ARG_OF_PERICENTER,MEAN_ANOMALY,BSTAR,MEAN_MOTION_DOT,MEAN_MOTION_DDOT,TLE_LINE0,TLE_LINE1,TLE_LINE2,SEMIMAJOR_AXIS,PERIOD,APOGEE,PERIGEE,DECAYED
53548.0,STARLINK-4513,PAYLOAD,2024-03-28 18:56:11,15.0883974,6.52e-05,53.2202,15.4764,89.4395,270.6672,8.1815e-05,1.015e-05,0.0,0 STARLINK-4513,1 53548U 22101X   24088.78901920  .00001015  00000-0  81815-4 0  9993,2 53548  53.2202  15.4764 0000652  89.4395 270.6672 15.08839740 88987,6917.881,95.438,540.197,539.295,0.0
53548.0,STARLINK-4513,PAYLOAD,2024-03-29 04:28:27,15.08873217,0.0001404,53.2196,13.6912,112.2771,247.8371,-5.5994e-05,-1.18e-05,0.0,0 STARLINK-4513,1 53548U 22101X   24089.18643430 -.00001180  00000-0 -55994-4 0  9991,2 53548  53.2196  13.6912 0001404 112.2771 247.8371 15.08873217 89040,6917.779,95.435,540.615,538.673,0.0
53548.0,STARLINK-4513,PAYLOAD,2024-03-29 21:57:41,15.08859483,0.0001311,53.2209,10.4198,111.8131,248.3001,-6.4256e-05,-1.311e-05,0.0,0 STARLINK-4513,1 53548U 22101X   24089.91506808 -.00001311  00000-0 -64256-4 0  9996,2 53548  53.2209  10.4198 0001311 111.8131 248.3001 15.08859483 89155,6917.821,95.436,540.593,538.779,0.0
53548.0,STARLINK-4513,PAYLOAD,2024-03-30 01:08:28,15.08857495,0.0001151,53.2195,9.8253,98.2366,261.8757,-0.00010084,-1.893e-05,0.0,0 STARLINK-4513,1 53548U 22101X   24090.04754856 -.00001893  00000-0 -10084-3 0  9994,2 53548  53.2195   9.8253 0001151  98.2366 261.8757 15.08857495 89174,6917.827,95.436,540.488,538.896,0.0
53548.0,STARLINK-4513,PAYLOAD,2024-03-30 18:37:42,15.08814604,0.0001426,53.2195,6.5542,98.167,261.9484,0.00036148,5.466e-05,0.0,0 STARLINK-4513,1 53548U 22101X   24090.77619129  .00005466  00000-0  36148-3 0  9994,2 53548  53.2195   6.5542 0001426  98.1670 261.9484 15.08814604 89286,6917.958,95.439,540.81,538.837,0.0
53548.0,STARLINK-4513,PAYLOAD,2024-03-30 21:48:29,15.0882955,0.0001323,53.2187,5.9578,95.5145,264.5998,0.00011848,1.598e-05,0.0,0 STARLINK-4513,1 53548U 22101X   24090.90866926  .00001598  00000-0  11848-3 0  9990,2 53548  53.2187   5.9578 0001323  95.5145 264.5998 15.08829550 89301,6917.912,95.438,540.693,538.862,0.0
53548.0,STARLINK-4513,PAYLOAD,2024-03-31 04:10:01,15.08840089,0.0001225,53.2194,4.7706,85.0355,275.0777,-4.9206e-05,-1.071e-05,0.0,0 STARLINK-4513,1 53548U 22101X   24091.17362656 -.00001071  00000-0 -49206-4 0  9999,2 53548  53.2194   4.7706 0001225  85.0355 275.0777 15.08840089 89343,6917.88,95.438,540.593,538.898,0.0
53548.0,STARLINK-4513,PAYLOAD,2024-03-31 21:39:16,15.08833583,0.0001194,53.2193,1.4992,83.505,276.6078,-9.0313e-06,-4.32e-06,0.0,0 STARLINK-4513,1 53548U 22101X   24091.90227079 -.00000432  00000-0 -90313-5 0  9995,2 53548  53.2193   1.4992 0001194  83.5050 276.6078 15.08833583 89457,6917.9,95.438,540.591,538.939,0.0
53548.0,STARLINK-4513,PAYLOAD,2024-04-01 10:22:20,15.08843375,0.0001219,53.2202,359.1232,91.4558,268.6574,8.3834e-05,1.047e-05,0.0,0 STARLINK-4513,1 53548U 22101X   24092.43218259  .00001047  00000-0  83834-4 0  9994,2 53548  53.2202 359.1232 0001219  91.4558 268.6574 15.08843375 89538,6917.87,95.437,540.578,538.892,0.0
53548.0,STARLINK-4513,PAYLOAD,2024-04-01 18:19:17,15.08831244,0.0001376,53.2213,357.6388,90.5842,269.5308,6.7103e-05,7.8e-06,0.0,0 STARLINK-4513,1 53548U 22101X   24092.76339427  .00000780  00000-0  67103-4 0  9995,2 53548  53.2213 357.6388 0001376  90.5842 269.5308 15.08831244 89587,6917.907,95.438,540.724,538.82,0.0
53548.0,STARLINK-4513,PAYLOAD,2024-04-02 00:40:49,15.08836757,0.0001381,53.2209,356.45,100.792,259.3228,0.00012048,1.63e-05,0.0,0 STARLINK-4513,1 53548U 22101X   24093.02834710  .00001630  00000-0  12048-3 0  9992,2 53548  53.2209 356.4500 0001381 100.7920 259.3228 15.08836757 89629,6917.89,95.438,540.711,538.8,0.0
53548.0,STARLINK-4513,PAYLOAD,2024-04-02 10:13:07,15.08849017,0.0001373,53.2215,354.6659,95.7284,264.3865,0.00015499,2.18e-05,0.0,0 STARLINK-4513,1 53548U 22101X   24093.42577808  .00002180  00000-0  15499-3 0  9992,2 53548  53.2215 354.6659 0001373  95.7284 264.3865 15.08849017 89680,6917.853,95.437,540.668,538.768,0.0
53548.0,STARLINK-4513,PAYLOAD,2024-04-02 21:20:50,15.08831298,0.0001351,53.2206,352.5846,99.5754,260.5391,-4.6043e-05,-1.02e-05,0.0,0 STARLINK-4513,1 53548U 22101X   24093.88947726 -.00001020  00000-0 -46043-4 0  9996,2 53548  53.2206 352.5846 0001351  99.5754 260.5391 15.08831298 89757,6917.907,95.438,540.707,538.837,0.0
53548.0,STARLINK-4513,PAYLOAD,2024-04-03 03:42:23,15.08834093,0.0001321,53.2188,351.3937,93.6354,266.4789,1.4583e-05,-5.6e-07,0.0,0 STARLINK-4513,1 53548U 22101X   24094.15443443 -.00000056  00000-0  14583-4 0  9995,2 53548  53.2188 351.3937 0001321  93.6354 266.4789 15.08834093 89798,6917.898,95.438,540.677,538.85,0.0
53548.0,STARLINK-4513,PAYLOAD,2024-04-03 10:03:55,15.08842289,0.0001416,53.2201,350.2051,91.13,268.9855,3.9433e-05,3.4e-06,0.0,0 STARLINK-4513,1 53548U 22101X   24094.41938874  .00000340  00000-0  39433-4 0  9997,2 53548  53.2201 350.2051 0001416  91.1300 268.9855 15.08842289 89830,6917.873,95.437,540.718,538.759,0.0
53548.0,STARLINK-4513,PAYLOAD,2024-04-03 22:47:00,15.08837871,0.000138,53.2194,347.8255,92.5572,267.5579,-8.1985e-06,-4.18e-06,0.0,0 STARLINK-4513,1 53548U 22101X   24094.94931335 -.00000418  00000-0 -81985-5 0  9998,2 53548  53.2194 347.8255 0001380  92.5572 267.5579 15.08837871 89913,6917.887,95.438,540.707,538.797,0.0
53548.0,STARLINK-4513,PAYLOAD,2024-04-04 09:54:42,15.08845381,0.0001368,53.2199,345.7441,91.6144,268.5005,4.1158e-05,3.67e-06,0.0,0 STARLINK-4513,1 53548U 22101X   24095.41298648  .00000367  00000-0  41158-4 0  9992,2 53548  53.2199 345.7441 0001368  91.6144 268.5005 15.08845381 89980,6917.864,95.437,540.675,538.783,0.0
53548.0,STARLINK-4513,PAYLOAD,2024-04-04 22:37:47,15.08831863,0.0001277,53.218,343.3647,92.5117,267.6021,7.8709e-05,9.65e-06,0.0,0 STARLINK-4513,1 53548U 22101X   24095.94291333  .00000965  00000-0  78709-4 0  9990,2 53548  53.2180 343.3647 0001277  92.5117 267.6021 15.08831863 90060,6917.905,95.438,540.654,538.887,0.0
53548.0,STARLINK-4513,PAYLOAD,2024-04-05 01:48:33,15.08840012,0.0001178,53.2181,342.7683,90.1354,269.9773,5.8909e-05,6.5e-06,0.0,0 STARLINK-4513,1 53548U 22101X   24096.07538881  .00000650  00000-0  58909-4 0  9998,2 53548  53.2181 342.7683 0001178  90.1354 269.9773 15.08840012 90088,6917.88,95.438,540.56,538.93,0.0
53548.0,STARLINK-4513,PAYLOAD,2024-04-05 20:53:10,15.08840866,0.0001133,53.2179,339.1998,90.1181,269.9941,7.5258e-05,9.1e-06,0.0,0 STARLINK-4513,1 53548U 22101X   24096.87026580  .00000910  00000-0  75258-4 0  9999,2 53548  53.2179 339.1998 0001133  90.1181 269.9941 15.08840866 90201,6917.878,95.437,540.527,538.959,0.0
53548.0,STARLINK-4513,PAYLOAD,2024-04-06 09:36:15,15.08839289,0.0001124,53.2172,336.8195,110.6651,249.4462,0.00013702,1.893e-05,0.0,0 STARLINK-4513,1 53548U 22101X   24097.40018286  .00001893  00000-0  13702-3 0  9999,2 53548  53.2172 336.8195 0001124 110.6651 249.4462 15.08839289 90283,6917.883,95.438,540.525,538.97,0.0
53548.0,STARLINK-4513,PAYLOAD,2024-04-06 22:19:21,15.08837466,0.0001676,53.2204,334.4415,89.9475,270.1709,1.3444e-05,-7.4e-07,0.0,0 STARLINK-4513,1 53548U 22101X   24097.93010968 -.00000074  00000-0  13444-4 0  9991,2 53548  53.2204 334.4415 0001676  89.9475 270.1709 15.08837466 90361,6917.888,95.438,540.913,538.594,0.0
53548.0,STARLINK-4513,PAYLOAD,2024-04-07 01:30:07,15.0883933,0.0001585,53.2216,333.8476,94.6295,265.4878,-5.9363e-05,-1.233e-05,0.0,0 STARLINK-4513,1 53548U 22101X   24098.06259159 -.00001233  00000-0 -59363-4 0  9992,2 53548  53.2216 333.8476 0001585  94.6295 265.4878 15.08839330 90384,6917.882,95.438,540.844,538.651,0.0
53548.0,STARLINK-4513,PAYLOAD,2024-04-07 22:10:08,15.08845344,0.0001393,53.2189,329.9803,107.8298,252.2846,-7.5979e-05,-1.497e-05,0.0,0 STARLINK-4513,1 53548U 22101X   24098.92370833 -.00001497  00000-0 -75979-4 0  9993,2 53548  53.2189 329.9803 0001393 107.8298 252.2846 15.08845344 90516,6917.864,95.437,540.693,538.765,0.0
53548.0,STARLINK-4513,PAYLOAD,2024-04-08 22:00:55,15.08833639,0.0001327,53.2187,325.5204,85.5328,274.5816,8.1589e-05,1.011e-05,0.0,0 STARLINK-4513,1 53548U 22101X   24099.91731293  .00001011  00000-0  81589-4 0  9998,2 53548  53.2187 325.5204 0001327  85.5328 274.5816 15.08833639 90668,6917.9,95.438,540.683,538.847,0.0
53548.0,STARLINK-4513,PAYLOAD,2024-04-09 01:11:42,15.08835694,0.0001235,53.2181,324.9252,82.0056,278.1076,4.9166e-05,4.95e-06,0.0,0 STARLINK-4513,1 53548U 22101X   24100.04979305  .00000495  00000-0  49166-4 0  9993,2 53548  53.2181 324.9252 0001235  82.0056 278.1076 15.08835694 90689,6917.894,95.438,540.613,538.904,0.0
53548.0,STARLINK-4513,PAYLOAD,2024-04-09 07:33:14,15.08842696,0.000132,53.2189,323.7366,85.23,274.8843,8.2155e-05,1.02e-05,0.0,0 STARLINK-4513,1 53548U 22101X   24100.31474762  .00001020  00000-0  82155-4 0  9990,2 53548  53.2189 323.7366 0001320  85.2300 274.8843 15.08842696 90722,6917.872,95.437,540.65,538.824,0.0
53548.0,STARLINK-4513,PAYLOAD,2024-04-10 07:24:02,15.08833024,0.0001472,53.2199,319.2785,92.2635,267.8525,2.9208e-06,-2.41e-06,0.0,0 STARLINK-4513,1 53548U 22101X   24101.30835935 -.00000241  00000-0  29208-5 0  9999,2 53548  53.2199 319.2785 0001472  92.2635 267.8525 15.08833024 90875,6917.902,95.438,540.785,538.748,0.0
53548.0,STARLINK-4513,PAYLOAD,2024-04-10 13:45:34,15.08835775,0.0001922,53.2232,318.0895,91.5088,268.6124,1.9346e-05,2e-07,0.0,0 STARLINK-4513,1 53548U 22101X   24101.57331931  .00000020  00000-0  19346-4 0  9990,2 53548  53.2232 318.0895 0001922  91.5088 268.6124 15.08835775 90910,6917.893,95.438,541.088,538.429,0.0
53548.0,STARLINK-4513,PAYLOAD,2024-04-10 21:42:30,15.08836222,0.000153,53.2199,316.6021,90.7858,269.3309,-2.0486e-05,-6.14e-06,0.0,0 STARLINK-4513,1 53548U 22101X   24101.90452076 -.00000614  00000-0 -20486-4 0  9999,2 53548  53.2199 316.6021 0001530  90.7858 269.3309 15.08836222 90964,6917.892,95.438,540.815,538.698,0.0
